{
  "type": "FeatureCollection",
  "features": [
    {
      "type": "Feature",
      "properties": {
        "norad_id": 40069,
        "name": "METEOR-M 2",
        "group": "weather",
        "lat": 32.36479011171177,
        "lon": 148.91211854098916,
        "alt_km": 817.2603682043373,
        "timestamp": "2025-12-11T20:41:14.730769+00:00",
        "meta_object_name": "METEOR-M 2",
        "meta_object_id": "2014-037A",
        "meta_epoch": "2025-12-11T14:55:43.423104",
        "meta_mean_motion": 14.2138611,
        "meta_eccentricity": 0.00049189,
        "meta_inclination": 98.4904,
        "meta_ra_of_asc_node": 323.2492,
        "meta_arg_of_pericenter": 213.6608,
        "meta_mean_anomaly": 146.4258,
        "meta_ephemeris_type": 0,
        "meta_classification_type": "U",
        "meta_norad_cat_id": 40069,
        "meta_element_set_no": 999,
        "meta_rev_at_epoch": 59267,
        "meta_bstar": 0.00018144395,
        "meta_mean_motion_dot": 3.54e-06,
        "meta_mean_motion_ddot": 0,
        "tle_line1": "1 40069U 14037A   25345.62203036  .00000354  00000+0  18144-3 0  9997",
        "tle_line2": "2 40069  98.4904 323.2492 0004918 213.6608 146.4258 14.21386110592674"
      },
      "geometry": {
        "type": "Point",
        "coordinates": [
          148.91211854098916,
          32.36479011171177
        ]
      }
    },
    {
      "type": "Feature",
      "properties": {
        "norad_id": 40267,
        "name": "HIMAWARI-8",
        "group": "weather",
        "lat": -0.02006349462626625,
        "lon": 171.76535004468687,
        "alt_km": 35789.96209910599,
        "timestamp": "2025-12-11T20:41:14.730781+00:00",
        "meta_object_name": "HIMAWARI-8",
        "meta_object_id": "2014-060A",
        "meta_epoch": "2025-12-11T14:10:41.232000",
        "meta_mean_motion": 1.00270191,
        "meta_eccentricity": 0.00012198,
        "meta_inclination": 0.0353,
        "meta_ra_of_asc_node": 192.9381,
        "meta_arg_of_pericenter": 110.4566,
        "meta_mean_anomaly": 130.4805,
        "meta_ephemeris_type": 0,
        "meta_classification_type": "U",
        "meta_norad_cat_id": 40267,
        "meta_element_set_no": 999,
        "meta_rev_at_epoch": 4087,
        "meta_bstar": 0,
        "meta_mean_motion_dot": -2.68e-06,
        "meta_mean_motion_ddot": 0,
        "tle_line1": "1 40267U 14060A   25345.59075500 -.00000268  00000+0  00000+0 0  9995",
        "tle_line2": "2 40267   0.0353 192.9381 0001219 110.4566 130.4805  1.00270191 40872"
      },
      "geometry": {
        "type": "Point",
        "coordinates": [
          171.76535004468687,
          -0.02006349462626625
        ]
      }
    },
    {
      "type": "Feature",
      "properties": {
        "norad_id": 40367,
        "name": "FENGYUN 2G",
        "group": "weather",
        "lat": 4.2697745860590475,
        "lon": 130.54755783728612,
        "alt_km": 35797.79852068459,
        "timestamp": "2025-12-11T20:41:14.730793+00:00",
        "meta_object_name": "FENGYUN 2G",
        "meta_object_id": "2014-090A",
        "meta_epoch": "2025-12-11T15:41:47.506848",
        "meta_mean_motion": 1.00264387,
        "meta_eccentricity": 0.00031248,
        "meta_inclination": 5.1659,
        "meta_ra_of_asc_node": 75.109,
        "meta_arg_of_pericenter": 195.9109,
        "meta_mean_anomaly": 144.5966,
        "meta_ephemeris_type": 0,
        "meta_classification_type": "U",
        "meta_norad_cat_id": 40367,
        "meta_element_set_no": 999,
        "meta_rev_at_epoch": 4011,
        "meta_bstar": 0,
        "meta_mean_motion_dot": -2.94e-06,
        "meta_mean_motion_ddot": 0,
        "tle_line1": "1 40367U 14090A   25345.65402207 -.00000294  00000+0  00000+0 0  9993",
        "tle_line2": "2 40367   5.1659  75.1090 0003124 195.9109 144.5966  1.00264387 40116"
      },
      "geometry": {
        "type": "Point",
        "coordinates": [
          130.54755783728612,
          4.2697745860590475
        ]
      }
    },
    {
      "type": "Feature",
      "properties": {
        "norad_id": 40732,
        "name": "METEOSAT-11 (MSG-4)",
        "group": "weather",
        "lat": -1.4151404584270402,
        "lon": 40.455134674662915,
        "alt_km": 35791.19859355943,
        "timestamp": "2025-12-11T20:41:14.730805+00:00",
        "meta_object_name": "METEOSAT-11 (MSG-4)",
        "meta_object_id": "2015-034A",
        "meta_epoch": "2025-12-11T04:59:33.728928",
        "meta_mean_motion": 1.00267015,
        "meta_eccentricity": 9.465e-05,
        "meta_inclination": 2.7315,
        "meta_ra_of_asc_node": 72.0057,
        "meta_arg_of_pericenter": 124.5533,
        "meta_mean_anomaly": 327.8196,
        "meta_ephemeris_type": 0,
        "meta_classification_type": "U",
        "meta_norad_cat_id": 40732,
        "meta_element_set_no": 999,
        "meta_rev_at_epoch": 533,
        "meta_bstar": 0,
        "meta_mean_motion_dot": 6.7e-07,
        "meta_mean_motion_ddot": 0,
        "tle_line1": "1 40732U 15034A   25345.20802927  .00000067  00000+0  00000+0 0  9999",
        "tle_line2": "2 40732   2.7315  72.0057 0000946 124.5533 327.8196  1.00267015  5338"
      },
      "geometry": {
        "type": "Point",
        "coordinates": [
          40.455134674662915,
          -1.4151404584270402
        ]
      }
    },
    {
      "type": "Feature",
      "properties": {
        "norad_id": 41105,
        "name": "ELEKTRO-L 2",
        "group": "weather",
        "lat": -5.15907096255464,
        "lon": 16.82962058271797,
        "alt_km": 35790.735801276234,
        "timestamp": "2025-12-11T20:41:14.730818+00:00",
        "meta_object_name": "ELEKTRO-L 2",
        "meta_object_id": "2015-074A",
        "meta_epoch": "2025-12-11T02:11:38.541984",
        "meta_mean_motion": 1.00272182,
        "meta_eccentricity": 0.00038781,
        "meta_inclination": 6.222,
        "meta_ra_of_asc_node": 72.8471,
        "meta_arg_of_pericenter": 199.5378,
        "meta_mean_anomaly": 186.0824,
        "meta_ephemeris_type": 0,
        "meta_classification_type": "U",
        "meta_norad_cat_id": 41105,
        "meta_element_set_no": 999,
        "meta_rev_at_epoch": 3662,
        "meta_bstar": 0,
        "meta_mean_motion_dot": -1.12e-06,
        "meta_mean_motion_ddot": 0,
        "tle_line1": "1 41105U 15074A   25345.09141831 -.00000112  00000+0  00000+0 0  9997",
        "tle_line2": "2 41105   6.2220  72.8471 0003878 199.5378 186.0824  1.00272182 36621"
      },
      "geometry": {
        "type": "Point",
        "coordinates": [
          16.82962058271797,
          -5.15907096255464
        ]
      }
    },
    {
      "type": "Feature",
      "properties": {
        "norad_id": 41752,
        "name": "INSAT-3DR",
        "group": "weather",
        "lat": 0.043346089514728625,
        "lon": 105.08025508958812,
        "alt_km": 35845.39593379619,
        "timestamp": "2025-12-11T20:41:14.730830+00:00",
        "meta_object_name": "INSAT-3DR",
        "meta_object_id": "2016-054A",
        "meta_epoch": "2025-12-11T13:51:50.536800",
        "meta_mean_motion": 1.00270715,
        "meta_eccentricity": 0.00144156,
        "meta_inclination": 0.0891,
        "meta_ra_of_asc_node": 86.6032,
        "meta_arg_of_pericenter": 183.9498,
        "meta_mean_anomaly": 91.9438,
        "meta_ephemeris_type": 0,
        "meta_classification_type": "U",
        "meta_norad_cat_id": 41752,
        "meta_element_set_no": 999,
        "meta_rev_at_epoch": 3393,
        "meta_bstar": 0,
        "meta_mean_motion_dot": -7e-07,
        "meta_mean_motion_ddot": 0,
        "tle_line1": "1 41752U 16054A   25345.57766825 -.00000070  00000+0  00000+0 0  9996",
        "tle_line2": "2 41752   0.0891  86.6032 0014415 183.9498  91.9438  1.00270715 33936"
      },
      "geometry": {
        "type": "Point",
        "coordinates": [
          105.08025508958812,
          0.043346089514728625
        ]
      }
    },
    {
      "type": "Feature",
      "properties": {
        "norad_id": 41836,
        "name": "HIMAWARI-9",
        "group": "weather",
        "lat": 0.021710594063348073,
        "lon": 171.8817422321975,
        "alt_km": 35787.25873452251,
        "timestamp": "2025-12-11T20:41:14.730842+00:00",
        "meta_object_name": "HIMAWARI-9",
        "meta_object_id": "2016-064A",
        "meta_epoch": "2025-12-11T07:19:57.783360",
        "meta_mean_motion": 1.00270622,
        "meta_eccentricity": 0.00011273,
        "meta_inclination": 0.0322,
        "meta_ra_of_asc_node": 90.3935,
        "meta_arg_of_pericenter": 181.1554,
        "meta_mean_anomaly": 59.4836,
        "meta_ephemeris_type": 0,
        "meta_classification_type": "U",
        "meta_norad_cat_id": 41836,
        "meta_element_set_no": 999,
        "meta_rev_at_epoch": 3332,
        "meta_bstar": 0,
        "meta_mean_motion_dot": -2.68e-06,
        "meta_mean_motion_ddot": 0,
        "tle_line1": "1 41836U 16064A   25345.30552990 -.00000268  00000+0  00000+0 0  9996",
        "tle_line2": "2 41836   0.0322  90.3935 0001127 181.1554  59.4836  1.00270622 33322"
      },
      "geometry": {
        "type": "Point",
        "coordinates": [
          171.8817422321975,
          0.021710594063348073
        ]
      }
    }
  ]
}